#dP2022 10  5  0  0  0.00000000      96 __u+U ITR00 EXT  IAC
## 2230 259200.00000000   900.00000000 59857 0.0000000000000
+  118   C06C07C08C09C10C11C12C13C14C16C19C20C21C22C23C24C25
+        C26C27C28C29C30C32C33C34C35C36C37C38C39C40C41C42C43
+        C44C45C46E01E02E03E04E05E07E08E09E10E11E12E13E14E15
+        E18E19E21E24E25E26E27E30E31E33E34E36G01G02G03G04G05
+        G06G07G08G09G10G11G12G13G14G15G16G17G18G19G20G21G22
+        G23G24G25G26G27G28G29G30G31G32J02J03J04R01R02R03R04
+        R05R07R08R09R11R12R13R14R15R17R18R19R20R21R24R25  0
++         9  9  8  8  8  9  9  7  8  9 10  8  7  8  8 10  8
++        10 10  8  9  8  8  8  7  8  8  9  8 10  9  8  9  8
++         8  9 10  8  8  8  8  7  7  7  8 10  7  8  8  8  8
++         7  7  8  8  7  8  9  9  8  8  8  6 10  9  7  7  8
++         9  8  6  7  8  8  8  8  8  7  8  8  8  8  8  9  8
++         7  8  7  7  8  8  8  8  8  7 11  8  9  8  8  9  9
++         8  9  7 10  8  9  8  8  9  8  9 10 10  8  7 13  0
%c M  cc GPS ccc cccc cccc cccc cccc ccccc ccccc ccccc ccccc
%c cc cc ccc ccc cccc cccc cccc cccc ccccc ccccc ccccc ccccc
%f  0.0000000  0.000000000  0.00000000000  0.000000000000000
%f  0.0000000  0.000000000  0.00000000000  0.000000000000000
%i    0    0    0    0      0      0      0      0         0
%i    0    0    0    0      0      0      0      0         0
/* IAC                                ULTRA-RAPID PREDICTION
/* S/V CLOCKS ARE ALIGNED TO GNSS TIME                      
/* G:C1WC2W R:C1PC2P E:C1XC5X C:C2IC6I J:C1CC2S             
/* PCV:IGS14_2218 OL/AL:FES2004  NONE     YN ORB:CoN CLK:CoN
*  2022 10 05  0 15  0.00000000
PC06 -18110.492538  27731.612380 -26220.000753    904.833723
PC07  -8675.410069  40055.153601  -9489.003439   -232.294486
PC08  -1219.944802  23570.257103  34966.905604    487.352588
PC09  -8791.444446  26726.958969 -31194.702516   -844.090447
PC10  -2665.751575  41700.924329  -2616.279325     88.117162
PC11 -22778.494879    -67.382999 -16025.683865   -370.188296
PC12  -8147.631200 -13037.237186 -23248.907234   -494.329000
PC13   6765.595904  27922.029673  31099.509443     98.339074
PC14 -15306.855231  -6801.382034  22338.126441    698.502207
PC16 -22522.770173  26959.886603 -23326.747232    132.329364
PC19  15575.016981  -4685.820745 -22662.517628   -803.501989
PC20  13058.286430  15281.377555 -19344.293975    871.550236
PC21  -2429.161464 -27507.503987   4094.263839   -535.396433
PC22   9266.824495 -22874.775218 -13053.672198   -869.168343
PC23 -11505.780135  11931.233406 -22440.272289   -401.437706
PC24 -22182.091377 -16479.832151   3771.512272   -459.278409
PC25 -23918.085611  -1811.993033 -14248.173806      5.053827
PC26  -9107.230375 -19660.261741  17555.618632    -16.928211
PC27   -933.923223  17557.776005  21653.249507     31.012934
PC28 -18250.104634  18240.664236  10620.659387     20.598541
PC29  25342.750366  -8783.238033   7709.280510     22.468852
PC30  17067.669771   6848.363023  20979.610327      0.319282
PC32   2573.011785  27496.907381  -3981.740961   -773.437998
PC33 -15592.934581   4622.722004  22670.880881   -830.500044
PC34 -17987.660017  -6003.783258 -20487.728098      9.566574
PC35  18634.766361 -18537.603950  -9341.334538     27.142831
PC36  24099.294549   2861.889338  13811.159799   -530.051055
PC37   7412.630332  19722.954662 -18292.505653   -405.362231
PC38 -10059.572977  21068.337543  35131.522601     28.847708
PC39 -25528.394397  27677.765054 -19157.999612     -0.574817
PC40 -13974.431104  37334.074053 -13407.386037     -5.421027
PC41  -9520.763847  22504.951647  13522.128680   -141.754216
PC42 -12699.063089 -16426.431304  18687.973561   -415.313124
PC43 -25364.930263   8101.886926  -8384.674207     17.836843
PC44    408.895376 -17765.326458 -21520.740622     71.286380
PC45  11130.912863 -12057.385489  22578.492834     -5.866171
PC46  23051.856609  15625.476489  -2110.425947     -4.203948
PE01 -10217.197205  14806.880169 -23498.462633   -540.701924
PE02  10107.922535 -14954.613332  23461.622823    328.772032
PE03  17831.137231 -23185.292362  -4591.735673   -606.519045
PE04  -4821.518667  26008.087634 -13287.696733  -1129.724057
PE05  20631.850516  -6651.886482 -20159.435543   -137.633094
PE07 -11398.554020 -13477.615845  23761.452929   -710.676976
PE08   4776.947033 -25968.890391  13382.483877   -609.962084
PE09  11223.676841  13493.933753 -23837.467167   -681.905999
PE10  12091.313138  14742.403997  22637.443751   -481.432553
PE11  22141.599296  10956.337606  16294.172813   1934.784079
PE12    828.054939  16104.265895  24818.089149   -204.921652
PE13 -21490.108218 -11249.529475 -16959.314718    430.653277
PE14  12876.671199   8818.346230  18671.876288     18.548313
PE15   -585.251087 -16026.426849 -24875.276947    716.137506
PE18 -11029.734077 -17832.891389 -23984.853812   -899.008758
PE19 -18934.543781  21632.976508   7057.656759  -4352.497270
PE21 -19365.103049  -4103.854004 -21999.111153   -761.569985
PE24  17667.289527  22747.792976   6873.989658   -873.468865
PE25  19450.291069   4423.621583  21884.434581   -589.363202
PE26 -29537.993341    582.555895   1707.354109  -1689.907119
PE27 -18125.405549 -22046.147438  -7818.789834   -407.737441
PE30  -5472.284684 -26709.891414  11504.875987   -890.312675
PE31   6254.946835  26839.641479 -10794.323150   -505.015770
PE33 -20526.307284  11321.853916  18073.009621   -454.382599
PE34  20369.253489 -11440.916462 -18194.367608     -7.842450
PE36  29591.089343    -77.065020   -825.657299   -441.176131
PG01 -15506.725455 -13438.922679 -17360.614437    272.781313
PG02  10906.107988  14253.572924  20177.840790   -643.632318
PG03 -11832.895092 -23757.766227   1870.075458   -360.590161
PG04  -6317.406446 -15333.676120  20728.505918   -108.656916
PG05   5105.441642  24370.217758   8887.806085    -99.166707
PG06 -20764.673851   7468.899385  14894.632361    481.692984
PG07 -25605.471139  -6525.698167   5034.599739    301.814931
PG08   1690.546372 -21332.785649 -15533.764124    -87.430027
PG09 -15337.292312  -4254.428218  21191.537015   -287.530372
PG10  15127.099653  -2033.248824 -21617.866835     -6.116306
PG11 -10388.046568  12896.412552  20758.605702    -22.386948
PG12   9911.797746  24640.295684   1495.928636   -288.472434
PG13 -10911.439329  21741.093909 -10608.447833    400.052650
PG14 -16205.974001    -86.849565 -21051.535460    -98.149553
PG15   1456.959276  21594.203293 -15639.836768    -23.565464
PG16   2531.969509 -22176.042262  13759.489899   -525.670086
PG17 -20192.183051   9341.565410 -14114.258016    665.634327
PG18  25873.612060   5494.250397   3141.504918     25.915221
PG19 -20086.139977  16275.179904  -5710.018891    219.522654
PG20  -4781.078419  17953.395369  19072.127268    481.006536
PG21  -7357.126466 -14527.574562 -20513.490262    158.520646
PG22  18459.676275 -18764.550923  -2314.690554    339.826602
PG23  17701.015990   8995.038222 -17714.849877     -0.752495
PG24  11970.755633  14520.341747 -19218.658709    111.880664
PG25  16591.319347  17412.687670  11274.328565    379.043790
PG26   8710.072615 -15085.432832  19875.421259    231.231621
PG27  11663.464577 -22909.579837  -5995.265495    203.029848
PG28 -11963.006379  10017.096029 -21025.329240    332.710492
PG29  13856.554262   6267.248835  21740.169340   -557.069241
PG30 -25837.878138   1578.466519  -6426.028010   -537.216634
PG31  20451.639619  -8047.009025  15086.839421   -195.676626
PG32  19705.032356 -12488.688359 -12361.486224   -253.381353
PJ02 -20079.573567  22846.800291 -24654.542916     -6.477967
PJ03 -30480.721607  27351.036679  15075.881556     -2.439365
PJ04 -27419.359983  28220.407749  21252.645487    111.628344
PR01  -6693.059074 -15326.029905  19258.129020     15.757608
PR02 -11677.250788   4838.180660  22203.706945    -22.870551
PR03  -9668.427392  20726.507717  11398.731565     64.893324
PR04  -2485.247113  24782.236834  -5527.592751    160.003923
PR05   6051.554740  15374.516856 -19440.764132    100.706759
PR07   9409.795587 -21141.498007 -10639.810006     42.037660
PR08   2216.593537 -24743.176555   5765.736629    -67.504020
PR09  18960.615328   5485.135379  16132.596770     80.288022
PR11  -7465.650804 -17160.873831  17353.944910     25.494058
PR12 -19146.712558 -16838.495493    339.125353     21.753630
PR13 -19374.998651  -6972.091076 -15064.512714    -27.486577
PR14  -7513.420672   8206.813185 -22937.070365     24.215626
PR15   8074.931155  17598.558895 -16580.155271     93.384520
PR17 -19454.191989  11897.013291  11388.993365    566.351700
PR18  -4626.100735  11904.638684  22103.517104     45.568180
PR19  11448.288810   6715.005838  21786.678537   -206.083993
PR20  24240.915141  -3863.496832   6888.215002    -79.611681
PR21  18517.111991 -12059.851143 -12773.024933   -339.002523
PR24 -24274.753071   4793.181780  -6129.709279    118.436116
PR25   4171.961196 -11958.727418 -22113.534533     13.921739
EOF
